OBJECT_NAME,OBJECT_ID,EPOCH,MEAN_MOTION,ECCENTRICITY,INCLINATION,RA_OF_ASC_NODE,ARG_OF_PERICENTER,MEAN_ANOMALY,EPHEMERIS_TYPE,CLASSIFICATION_TYPE,NORAD_CAT_ID,ELEMENT_SET_NO,REV_AT_EPOCH,BSTAR,MEAN_MOTION_DOT,MEAN_MOTION_DDOT
KUZGTU 1 (RS47S),2023-091AV,2026-06-27T04:07:07.523040,15.30083884,.0011859,97.5067,242.7539,67.0268,293.2222,0,U,57217,999,16590,.4698E-3,.13639E-3,0
SONATE-2,2024-043Q,2026-06-26T23:00:10.657152,15.59436847,.0007313,97.5532,328.9589,163.6237,196.5256,0,U,59112,999,12941,.54516E-3,.43201E-3,0
MESAT1,2024-125G,2026-06-27T03:40:41.944800,15.64300027,.0010466,97.2279,35.8697,169.3178,190.8306,0,U,60209,999,11112,.7102E-3,.68241E-3,0
OOV-CUBE (TUBSAT-30),2024-128F,2026-06-27T04:03:47.035296,15.02807809,.0043394,61.9924,190.7644,135.9985,224.4574,0,U,60240,999,10761,.14541E-3,.1779E-4,0
COLIBRI-S (RS67S),2024-199M,2026-06-27T05:04:08.791968,15.48128929,.000668,97.2985,52.1590,229.9593,130.1072,0,U,61746,999,13896,.46332E-3,.2429E-3,0
HORS 3 (RS81S),2024-199U,2026-06-27T04:34:43.773024,15.55656861,.0004518,97.2971,54.2348,221.7114,138.3797,0,U,61753,999,13911,.5996E-3,.41239E-3,0
HORS 4 (RS82S),2024-199V,2026-06-27T04:25:51.843648,15.60612686,.0004441,97.2912,55.4963,206.4022,153.7010,0,U,61754,999,13920,.6644E-3,.55122E-3,0
SIT-2086,2024-199AF,2026-06-27T04:20:54.073824,15.53765290,.000582,97.2929,54.6670,205.1464,154.9507,0,U,61764,999,13598,.6095E-3,.39128E-3,0
HYPERVIEW 1G (RS66S),2024-199AP,2026-06-26T18:29:46.347648,15.78571118,.00059865,97.2856,57.9913,186.8100,173.3087,0,U,61772,999,13618,.84483271E-3,.148755E-2,0
ALTAIR (RS65S),2024-199AW,2026-06-27T04:51:34.322112,15.37208073,.0010753,97.3024,47.4883,268.9888,91.0125,0,U,61779,999,13865,.33998E-3,.12335E-3,0
ASRTU-1 (AO-123),2024-199AY,2026-06-27T04:46:55.606944,15.35813724,.0011872,97.2995,46.7804,272.7490,87.2395,0,U,61781,999,13546,.2341E-3,.8094E-4,0
SAMSAT-IONOSPHERE (RS75S),2024-199BB,2026-06-27T04:58:21.852768,15.58502552,.0006718,97.2937,54.3357,226.7209,133.3488,0,U,61784,999,13912,.67954E-3,.5206E-3,0
RTU MIREA 1 (RS51S),2024-199BC,2026-06-27T05:00:38.424384,15.62182750,.0006696,97.2924,55.2220,218.4918,141.5863,0,U,61785,999,13603,.74919E-3,.66163E-3,0
TEVEL2-4,2025-052D,2026-06-27T05:20:48.947136,15.34955968,.000482,97.3900,74.6325,85.3074,274.8720,0,U,63213,999,7165,.58985E-3,.19955E-3,0
TEVEL2-5,2025-052E,2026-06-27T04:18:05.834016,15.34776632,.0004806,97.3898,74.5337,85.9102,274.2690,0,U,63214,999,7164,.60583E-3,.20382E-3,0
TEVEL2-6,2025-052F,2026-06-27T04:36:10.869408,15.34741248,.0004649,97.3903,74.5310,87.0806,273.0969,0,U,63215,999,7164,.60529E-3,.2034E-3,0
TEVEL2-1,2025-052H,2026-06-26T23:07:21.294624,15.34183814,.0005008,97.3871,73.9149,94.9700,265.2114,0,U,63217,999,7159,.57047E-3,.18827E-3,0
TEVEL2-3,2025-052J,2026-06-27T05:14:47.556672,15.34253406,.0004859,97.3877,74.1933,95.2492,264.9305,0,U,63218,999,7163,.589E-3,.19485E-3,0
TEVEL2-2,2025-052K,2026-06-26T23:07:43.292064,15.34194332,.0005007,97.3872,73.9178,95.2154,264.9660,0,U,63219,999,7159,.57751E-3,.19067E-3,0
TEVEL2-9,2025-052AD,2026-06-27T05:09:40.575744,15.32198035,.0008294,97.3934,73.5229,104.2052,256.0111,0,U,63237,999,7156,.57551E-3,.17853E-3,0
TEVEL2-7,2025-052AE,2026-06-27T04:37:19.727616,15.31893747,.000836,97.3939,73.4122,104.5251,255.6918,0,U,63238,999,7155,.57189E-3,.17572E-3,0
TEVEL2-8,2025-052AF,2026-06-26T05:18:23.535072,15.31844407,.0008385,97.3937,72.4192,107.6731,252.5427,0,U,63239,999,7140,.58597E-3,.1798E-3,0
INNOSAT 16 (RS92S7),2025-155C,2026-06-27T04:03:35.883648,15.25557869,.0011657,97.4562,145.2655,142.6498,217.5553,0,U,64878,999,8219,.23983E-3,.6023E-4,0
GEOSCAN 6 (RS92S6),2025-155D,2026-06-27T04:28:33.142944,15.30331525,.000942,97.4554,146.7779,132.2870,227.9170,0,U,64879,999,8229,.37052E-3,.10811E-3,0
GEOSCAN 1 (RS92S1),2025-155E,2026-06-27T04:26:24.173664,15.30948079,.0009371,97.4550,146.9330,132.2033,228.0005,0,U,64880,999,8230,.41673E-3,.12406E-3,0
239ALFEROV (RS61S),2025-155F,2026-06-27T04:55:50.342592,15.33200900,.0009091,97.4550,147.5492,130.4323,229.7713,0,U,64881,999,8234,.49025E-3,.15681E-3,0
GEOSCAN 2 (RS92S2),2025-155Q,2026-06-27T04:14:46.078944,15.31212359,.0008997,97.4550,147.0814,120.9321,239.2806,0,U,64890,999,8231,.36399E-3,.10913E-3,0
GEOSCAN 5 (RS92S5),2025-155R,2026-06-27T04:37:03.379008,15.33516982,.0007947,97.4542,147.6773,133.8361,226.3540,0,U,64891,999,8235,.48384E-3,.15625E-3,0
GEOSCAN 4 (RS92S4),2025-155S,2026-06-27T04:12:49.733568,15.33675019,.0007991,97.4546,147.7116,133.4105,226.7803,0,U,64892,999,8235,.47596E-3,.15446E-3,0
GEOSCAN 3 (RS92S3),2025-155T,2026-06-27T03:55:05.880000,15.35719338,.0007955,97.4534,148.1580,132.6169,227.5746,0,U,64893,999,8238,.55837E-3,.19361E-3,0
