KUZGTU 1 (RS47S)        
1 57217U 23091AV  26178.17161485  .00013639  00000+0  46980-3 0  9995
2 57217  97.5067 242.7539 0011859  67.0268 293.2222 15.30083884165906
SONATE-2                
1 59112U 24043Q   26177.95845668  .00043201  00000+0  54516-3 0  9998
2 59112  97.5532 328.9589 0007313 163.6237 196.5256 15.59436847129410
MESAT1                  
1 60209U 24125G   26178.15326325  .00068241  00000+0  71020-3 0  9995
2 60209  97.2279  35.8697 0010466 169.3178 190.8306 15.64300027111126
OOV-CUBE (TUBSAT-30)    
1 60240U 24128F   26178.16929439  .00001779  00000+0  14541-3 0  9997
2 60240  61.9924 190.7644 0043394 135.9985 224.4574 15.02807809107612
COLIBRI-S (RS67S)       
1 61746U 24199M   26178.21121287  .00024290  00000+0  46332-3 0  9994
2 61746  97.2985  52.1590 0006680 229.9593 130.1072 15.48128929138967
HORS 3 (RS81S)          
1 61753U 24199U   26178.19078441  .00041239  00000+0  59960-3 0  9995
2 61753  97.2971  54.2348 0004518 221.7114 138.3797 15.55656861139112
HORS 4 (RS82S)          
1 61754U 24199V   26178.18462782  .00055122  00000+0  66440-3 0  9997
2 61754  97.2912  55.4963 0004441 206.4022 153.7010 15.60612686139209
SIT-2086                
1 61764U 24199AF  26178.18118141  .00039128  00000+0  60950-3 0  9993
2 61764  97.2929  54.6670 0005820 205.1464 154.9507 15.53765290135989
HYPERVIEW 1G (RS66S)    
1 61772U 24199AP  26177.77067532  .00148755  00000+0  84483-3 0  9997
2 61772  97.2856  57.9913 0005986 186.8100 173.3087 15.78571118136180
ALTAIR (RS65S)          
1 61779U 24199AW  26178.20248058  .00012335  00000+0  33998-3 0  9996
2 61779  97.3024  47.4883 0010753 268.9888  91.0125 15.37208073138653
ASRTU-1 (AO-123)        
1 61781U 24199AY  26178.19925471  .00008094  00000+0  23410-3 0  9993
2 61781  97.2995  46.7804 0011872 272.7490  87.2395 15.35813724135467
SAMSAT-IONOSPHERE (RS7*)
1 61784U 24199BB  26178.20719737  .00052060  00000+0  67954-3 0  9997
2 61784  97.2937  54.3357 0006718 226.7209 133.3488 15.58502552139126
RTU MIREA 1 (RS51S)     
1 61785U 24199BC  26178.20877806  .00066163  00000+0  74919-3 0  9998
2 61785  97.2924  55.2220 0006696 218.4918 141.5863 15.62182750136036
TEVEL2-4                
1 63213U 25052D   26178.22278874  .00019955  00000+0  58985-3 0  9999
2 63213  97.3900  74.6325 0004820  85.3074 274.8720 15.34955968 71657
TEVEL2-5                
1 63214U 25052E   26178.17923419  .00020382  00000+0  60583-3 0  9999
2 63214  97.3898  74.5337 0004806  85.9102 274.2690 15.34776632 71646
TEVEL2-6                
1 63215U 25052F   26178.19179247  .00020340  00000+0  60529-3 0  9998
2 63215  97.3903  74.5310 0004649  87.0806 273.0969 15.34741248 71645
TEVEL2-1                
1 63217U 25052H   26177.96344091  .00018827  00000+0  57047-3 0  9993
2 63217  97.3871  73.9149 0005008  94.9700 265.2114 15.34183814 71592
TEVEL2-3                
1 63218U 25052J   26178.21860598  .00019485  00000+0  58900-3 0  9998
2 63218  97.3877  74.1933 0004859  95.2492 264.9305 15.34253406 71636
TEVEL2-2                
1 63219U 25052K   26177.96369551  .00019067  00000+0  57751-3 0  9992
2 63219  97.3872  73.9178 0005007  95.2154 264.9660 15.34194332 71592
TEVEL2-9                
1 63237U 25052AD  26178.21505296  .00017853  00000+0  57551-3 0  9998
2 63237  97.3934  73.5229 0008294 104.2052 256.0111 15.32198035 71565
TEVEL2-7                
1 63238U 25052AE  26178.19258944  .00017572  00000+0  57189-3 0  9996
2 63238  97.3939  73.4122 0008360 104.5251 255.6918 15.31893747 71550
TEVEL2-8                
1 63239U 25052AF  26177.22110573  .00017980  00000+0  58597-3 0  9992
2 63239  97.3937  72.4192 0008385 107.6731 252.5427 15.31844407 71403
INNOSAT 16 (RS92S7)     
1 64878U 25155C   26178.16916532  .00006023  00000+0  23983-3 0  9996
2 64878  97.4562 145.2655 0011657 142.6498 217.5553 15.25557869 82191
GEOSCAN 6 (RS92S6)      
1 64879U 25155D   26178.18649471  .00010811  00000+0  37052-3 0  9996
2 64879  97.4554 146.7779 0009420 132.2870 227.9170 15.30331525 82296
GEOSCAN 1 (RS92S1)      
1 64880U 25155E   26178.18500201  .00012406  00000+0  41673-3 0  9991
2 64880  97.4550 146.9330 0009371 132.2033 228.0005 15.30948079 82304
239ALFEROV (RS61S)      
1 64881U 25155F   26178.20544378  .00015681  00000+0  49025-3 0  9995
2 64881  97.4550 147.5492 0009091 130.4323 229.7713 15.33200900 82347
GEOSCAN 2 (RS92S2)      
1 64890U 25155Q   26178.17692221  .00010913  00000+0  36399-3 0  9995
2 64890  97.4550 147.0814 0008997 120.9321 239.2806 15.31212359 82311
GEOSCAN 5 (RS92S5)      
1 64891U 25155R   26178.19240022  .00015625  00000+0  48384-3 0  9998
2 64891  97.4542 147.6773 0007947 133.8361 226.3540 15.33516982 82351
GEOSCAN 4 (RS92S4)      
1 64892U 25155S   26178.17557562  .00015446  00000+0  47596-3 0  9992
2 64892  97.4546 147.7116 0007991 133.4105 226.7803 15.33675019 82352
GEOSCAN 3 (RS92S3)      
1 64893U 25155T   26178.16326250  .00019361  00000+0  55837-3 0  9997
2 64893  97.4534 148.1580 0007955 132.6169 227.5746 15.35719338 82384
